STARLINK-36332          
1 67862U 26034N   26079.21705939  .00330299  00000+0  16015-2 0  9994
2 67862  53.1581 158.4916 0001257 131.6426 228.4704 15.81038953  5607
STARLINK-36835          
1 67863U 26034P   26078.64733085  .00191913  00000+0  95022-3 0  9998
2 67863  53.1608 161.3383 0000833 328.1356  31.9616 15.80968618  5511
STARLINK-36831          
1 67864U 26034Q   26078.64658087  .00170404  00000+0  84620-3 0  9991
2 67864  53.1587 161.3339 0000561 332.8249  27.2744 15.80969193  5519
STARLINK-36738          
1 67865U 26034R   26078.64582975  .00177146  00000+0  87789-3 0  9993
2 67865  53.1597 161.3283 0001193 325.8510  34.2436 15.80993147  5516
STARLINK-36780          
1 67866U 26034S   26078.64508061  .00225293  00000+0  11100-2 0  9998
2 67866  53.1593 161.3237 0000783 332.5473  27.5508 15.80979433  5516
STARLINK-36761          
1 67867U 26034T   26078.64433143  .00160554  00000+0  79849-3 0  9990
2 67867  53.1605 161.3172 0000729 353.5670   6.5344 15.80966892  5511
STARLINK-36762          
1 67868U 26034U   26079.21255626  .00455751  00000+0  21699-2 0  9998
2 67868  53.1586 158.4601 0001634 140.5151 219.5991 15.81103211  5601
STARLINK-36779          
1 67869U 26034V   26079.21181147  .00251233  00000+0  12306-2 0  9999
2 67869  53.1585 158.4560 0003046 312.5938  47.4827 15.81030852  5604
STARLINK-36770          
1 67870U 26034W   26078.64133489  .00257049  00000+0  12628-2 0  9991
2 67870  53.1591 161.2976 0001244  84.6629 275.4536 15.80954163  5517
STARLINK-36769          
1 67871U 26034X   26078.51564476  .00208707  00000+0  10335-2 0  9992
2 67871  53.1593 161.9350 0001832  90.9566 269.1667 15.80916079  5492
STARLINK-36786          
1 67872U 26034Y   26078.64057998  .00299752  00000+0  14624-2 0  9998
2 67872  53.1595 161.2919 0000785 341.9007  18.1987 15.80986973  5514
STARLINK-36783          
1 67873U 26034Z   26078.51339410  .00209339  00000+0  10354-2 0  9995
2 67873  53.1590 161.9193 0001080  78.4065 281.7079 15.80940470  5495
